[{"OBJECT_NAME":"VSP RF C1","OBJECT_ID":"2024-043AQ","EPOCH":"2026-03-09T21:56:05.358624","MEAN_MOTION":15.29409663,"ECCENTRICITY":0.00093965,"INCLINATION":97.5441,"RA_OF_ASC_NODE":205.1792,"ARG_OF_PERICENTER":219.6172,"MEAN_ANOMALY":140.4382,"EPHEMERIS_TYPE":0,"CLASSIFICATION_TYPE":"U","NORAD_CAT_ID":59136,"ELEMENT_SET_NO":999,"REV_AT_EPOCH":11190,"BSTAR":0.00026222052,"MEAN_MOTION_DOT":7.409e-5,"MEAN_MOTION_DDOT":0},{"OBJECT_NAME":"STARLINK-33531","OBJECT_ID":"2025-065A","EPOCH":"2026-03-08T11:10:12.836640","MEAN_MOTION":15.27601157,"ECCENTRICITY":0.00012042,"INCLINATION":43.0009,"RA_OF_ASC_NODE":113.9152,"ARG_OF_PERICENTER":281.0419,"MEAN_ANOMALY":79.0297,"EPHEMERIS_TYPE":0,"CLASSIFICATION_TYPE":"U","NORAD_CAT_ID":63399,"ELEMENT_SET_NO":999,"REV_AT_EPOCH":5265,"BSTAR":0.0013310448,"MEAN_MOTION_DOT":0.00036571,"MEAN_MOTION_DDOT":0}]
